METEOSAT-7              
1 24932U 97049B   17134.06551520 -.00000213  00000-0  00000-0 0  9996
2 24932  10.6141  37.6098 0010507 315.7896  44.0338  0.98311834 72109
NOAA 15                 
1 25338U 98030A   17134.95157785  .00000035  00000-0  33738-4 0  9990
2 25338  98.7828 145.7946 0009563 307.1424  52.8882 14.25791568988001
METEOSAT-8 (MSG-1)      
1 27509U 02040B   17134.75820654  .00000140  00000-0  00000-0 0  9997
2 27509   4.7848  58.4705 0000795 317.5241 170.9058  1.00271627 53968
KALPANA-1 (METSAT 1)    
1 27525U 02043A   17134.30426092 -.00000080  00000-0  00000-0 0  9991
2 27525   6.2961  55.4514 0013134 236.3099 123.3875  1.00273655 53764
INSAT-3A                
1 27714U 03013A   17134.81646528 -.00000321  00000-0  00000-0 0  9991
2 27714   1.0858  88.0883 0013787 242.2853 338.1746  0.99812930 51584
NOAA 18                 
1 28654U 05018A   17134.97052274  .00000000  00000-0  25436-4 0  9995
2 28654  99.1844 156.3697 0014759 161.0153 199.1571 14.12336449617477
METEOSAT-9 (MSG-2)      
1 28912U 05049B   17134.00688816  .00000060  00000-0  00000-0 0  9999
2 28912   2.1379  70.8955 0000760  62.6627 110.1606  1.00276143 41770
HIMAWARI-7 (MTSAT-2)    
1 28937U 06004A   17134.86515212 -.00000246  00000-0  00000-0 0  9998
2 28937   0.0182 273.9213 0003329 139.8575 275.4434  1.00268614 41051
FORMOSAT-3 FM6          
1 29047U 06011A   17134.78612505 -.00000023  00000-0  74809-5 0  9999
2 29047  71.9797 255.3357 0051273 211.2511 148.5575 14.28578872579980
FORMOSAT-3 FM1          
1 29048U 06011B   17134.58464073  .00000093  00000-0  53256-4 0  9991
2 29048  71.9660 167.9397 0043770 168.2290 352.0713 14.28513223582440
FORMOSAT-3 FM5          
1 29049U 06011C   17134.75123069  .00000042  00000-0  32832-4 0  9999
2 29049  72.0199 332.8649 0035784 204.6071 155.3360 14.28563869578258
FORMOSAT-3 FM3          
1 29050U 06011D   17134.68372983  .00000106  00000-0  32882-4 0  9990
2 29050  72.0168 234.1611 0051285 219.2135 140.5298 14.58499068591686
FORMOSAT-3 FM4          
1 29051U 06011E   17134.70334230  .00000068  00000-0  42443-4 0  9998
2 29051  72.0065 237.0947 0066867  78.0336 282.8286 14.28586184580838
FORMOSAT-3 FM2          
1 29052U 06011F   17134.91943566  .00000036  00000-0  30449-4 0  9998
2 29052  72.0337 307.5115 0040061 166.7250 193.4951 14.28679605578361
GOES 13                 
1 29155U 06018A   17134.56159093 -.00000252  00000-0  00000-0 0  9991
2 29155   0.2487 273.3336 0005682 159.8571 286.8822  1.00272630 10096
METOP-A                 
1 29499U 06044A   17134.94099802 -.00000001  00000-0  19654-4 0  9995
2 29499  98.6808 195.1124 0000216  95.4912  26.1439 14.21498916548238
FENGYUN 2D              
1 29640U 06053A   17134.86052164 -.00000362  00000-0  10000-3 0  9999
2 29640   4.3916  64.5383 0004896 340.8028 261.0320  1.00267309 38268
FENGYUN 3A              
1 32958U 08026A   17134.87765609  .00000015  00000-0  26702-4 0  9994
2 32958  98.4109 165.2178 0010212  25.1200 335.0466 14.19660560464612
FENGYUN 2E              
1 33463U 08066A   17133.98783647 -.00000204  00000-0  00000-0 0  9993
2 33463   2.1168  66.7336 0003304 214.5752  33.0691  1.00265085 30783
NOAA 19                 
1 33591U 09005A   17134.89790519  .00000099  00000-0  79129-4 0  9999
2 33591  99.0899 101.2554 0014234  10.3842 349.7620 14.12179039425691
GOES 14                 
1 35491U 09033A   17133.64594737 -.00000097  00000-0  00000-0 0  9994
2 35491   0.1992 103.5057 0004401 122.4541 134.0125  1.00271549 28852
METEOR-M 1              
1 35865U 09049A   17134.82815829  .00000001  00000-0  19170-4 0  9991
2 35865  98.4240 158.0064 0001378 221.7799 138.3275 14.22108693397369
GOES 15                 
1 36411U 10008A   17133.73200695  .00000085  00000-0  00000-0 0  9994
2 36411   0.1334 105.3406 0002856  36.1517 218.5369  1.00280738 26383
COMS 1                  
1 36744U 10032A   17134.86561522 -.00000346  00000-0  00000-0 0  9995
2 36744   0.0273  30.1198 0001409  47.7261 234.7969  1.00272066 25350
FENGYUN 3B              
1 37214U 10059A   17134.89660453 -.00000009  00000-0  17986-4 0  9994
2 37214  98.8918  93.8721 0015998 232.7763 127.1954 14.15849764337836
ELEKTRO-L 1 (GOMS 2)    
1 37344U 11001A   17133.68341949 -.00000267  00000-0  00000-0 0  9999
2 37344   2.3696  78.0928 0004293 289.5974  70.0073  1.00215338 23189
SUOMI NPP               
1 37849U 11061A   17134.82009069  .00000013  00000-0  27026-4 0  9995
2 37849  98.7338  73.9905 0000581 115.3705 324.1102 14.19547840287362
FENGYUN 2F              
1 38049U 12002A   17134.95392774 -.00000359  00000-0  00000-0 0  9999
2 38049   1.6484  78.0289 0002783 174.1024  76.1935  1.00266435 19594
METEOSAT-10 (MSG-3)     
1 38552U 12035B   17134.35368185 -.00000002  00000-0  00000-0 0  9992
2 38552   0.8264  53.2740 0000640  63.5614 243.1798  1.00282658 17599
METOP-B                 
1 38771U 12049A   17134.95407407 -.00000004  00000-0  18282-4 0  9994
2 38771  98.6813 195.6753 0001013  46.3985 307.6588 14.21498615241554
FENGYUN 3C              
1 39260U 13052A   17134.85452092  .00000001  00000-0  20937-4 0  9998
2 39260  98.6502 205.3201 0001825  88.1760 271.9613 14.19646925188655
METEOR-M 2              
1 40069U 14037A   17134.42650942 -.00000043  00000-0  36895-7 0  9998
2 40069  98.6575 189.8480 0004590 323.8867  36.2002 14.20641716147764
HIMAWARI-8              
1 40267U 14060A   17133.96517982 -.00000278  00000-0  00000-0 0  9990
2 40267   0.0106 334.9412 0000935 105.8775 279.2012  1.00273803  9460
FENGYUN 2G              
1 40367U 14090A   17134.92711713 -.00000332  00000-0  00000-0 0  9990
2 40367   0.5037 259.4595 0003578 327.4957  84.3838  1.00273207  8741
METEOSAT-11 (MSG-4)     
1 40732U 15034A   17134.04178658 -.00000029  00000-0  00000-0 0  9996
2 40732   1.8808 243.0463 0000691 126.8004 233.7020  1.00275078  6746
ELEKTRO-L 2             
1 41105U 15074A   17134.85952084 -.00000100  00000-0  00000-0 0  9997
2 41105   0.1017  76.5480 0002425 352.2165 189.4486  1.00273614  5222
HIMAWARI-9              
1 41836U 16064A   17133.96481713 -.00000277  00000-0  00000-0 0  9990
2 41836   0.0452 102.4689 0001323 328.3676 289.1871  1.00271571  1897
GOES 16                 
1 41866U 16071A   17133.60547694 -.00000185  00000-0  00000-0 0  9991
2 41866   0.0079  45.0869 0001874   6.1060 308.8329  1.00272577  1801
FENGYUN 4A              
1 41882U 16077A   17134.18217316 -.00000305  00000-0  00000-0 0  9998
2 41882   0.0775 265.0464 0002498 258.8672 233.4937  1.00270388  1687
CYGFM05                 
1 41884U 16078A   17134.62536195  .00000294  00000-0  17820-4 0  9997
2 41884  34.9563 233.1781 0016073  41.3620 318.8306 15.13545553 22757
CYGFM04                 
1 41885U 16078B   17134.58737677  .00000297  00000-0  17781-4 0  9990
2 41885  34.9495 232.7917 0014553  39.5500 320.6271 15.13951717 22750
CYGFM02                 
1 41886U 16078C   17134.66796048  .00000357  00000-0  21089-4 0  9990
2 41886  34.9588 232.6037 0015215  40.4480 319.7360 15.13824217 22763
CYGFM01                 
1 41887U 16078D   17134.63077806  .00000287  00000-0  17434-4 0  9993
2 41887  34.9531 233.1874 0016498  41.9216 318.2755 15.13519001 22757
CYGFM08                 
1 41888U 16078E   17134.68249320  .00000346  00000-0  20580-4 0  9993
2 41888  34.9501 232.6293 0015781  41.8727 318.3188 15.13658966 22759
CYGFM06                 
1 41889U 16078F   17134.64080581  .00000286  00000-0  17127-4 0  9998
2 41889  34.9580 232.3728 0013964  38.7637 321.4073 15.14081346 22754
CYGFM07                 
1 41890U 16078G   17134.63136323  .00000301  00000-0  17899-4 0  9999
2 41890  34.9519 232.2280 0013697  39.3191 320.8513 15.14191951 22751
CYGFM03                 
1 41891U 16078H   17134.62643705  .00000408  00000-0  23617-4 0  9999
2 41891  34.9553 232.2224 0013169  38.9689 321.1969 15.14198290 22751
